STARLINK-37232          
1 69515U 26133H   26188.08336806  .00053521  00000+0  96443-3 0  9994
2 69515  53.1599 223.3672 0001258  97.5981 145.4819 15.49289582  5066
STARLINK-37323          
1 69516U 26133J   26188.08336806 -.02443859  00000+0 -36513-1 0  9996
2 69516  53.1603 222.5656 0001389 102.3451 176.1208 15.58139290  5061
STARLINK-37357          
1 69517U 26133K   26188.12841330  .00034649  00000+0  62770-3 0  9990
2 69517  53.1588 223.4215 0000895 100.0723 260.0387 15.49335302  5167
STARLINK-37408          
1 69518U 26133L   26188.08336806  .00071403  00000+0  12830-2 0  9993
2 69518  53.1599 222.9006 0001081  48.7043  64.7369 15.49246680  5061
STARLINK-37570          
1 69519U 26133M   26188.08336806  .00053093  00000+0  95682-3 0  9996
2 69519  53.1598 223.3937 0001166  87.0547 141.1723 15.49290154  5067
STARLINK-37510          
1 69520U 26133N   26188.08336806  .00054956  00000+0  98972-3 0  9992
2 69520  53.1600 223.3427 0000531 133.0461 121.1333 15.49294848  5068
STARLINK-37586          
1 69521U 26133P   26188.08336806 -.02328927  00000+0 -36293-1 0  9995
2 69521  53.1607 222.4304 0000775  93.8278 249.6394 15.56848215  5063
STARLINK-37379          
1 69522U 26133Q   26188.08336806  .00051382  00000+0  92534-3 0  9992
2 69522  53.1601 223.0329 0001796  74.7970 331.3195 15.49323788  5112
STARLINK-37429          
1 69523U 26133R   26188.00003471  .00078539  00000+0  14060-2 0  9994
2 69523  53.1597 223.8533 0001351  62.6652  29.5785 15.49310165  5107
STARLINK-37352          
1 69524U 26133S   26188.08336806  .00050657  00000+0  91358-3 0  9991
2 69524  53.1600 223.0154 0001169  87.1085 326.8458 15.49289694  5116
STARLINK-37490          
1 69525U 26133T   26188.08336806  .00069083  00000+0  12431-2 0  9999
2 69525  53.1603 222.5486 0000865  41.1883 242.0762 15.49219966  5112
STARLINK-37438          
1 69526U 26133U   26188.08336806  .00054967  00000+0  99012-3 0  9996
2 69526  53.1602 223.1726 0001037  63.6490 271.9836 15.49288761  5113
STARLINK-37484          
1 69527U 26133V   26188.08336806 -.02739010  00000+0 -50778-1 0  9994
2 69527  53.1606 222.4600 0001034  76.4531 250.4470 15.52152819  5110
STARLINK-37523          
1 69528U 26133W   26188.08336806  .00051722  00000+0  93216-3 0  9994
2 69528  53.1600 222.9819 0001125  85.5578 343.7817 15.49300005  5114
STARLINK-37369          
1 69529U 26133X   26188.08336806  .00052416  00000+0  94512-3 0  9996
2 69529  53.1598 222.9406 0000858 106.2862 342.7001 15.49280543  5110
STARLINK-37670          
1 69530U 26133Y   26188.08336806  .00055209  00000+0  99446-3 0  9992
2 69530  53.1602 223.1084 0000820  81.5887 283.8613 15.49287610  5121
STARLINK-37897          
1 69531U 26133Z   26188.08336806 -.00776841  00000+0 -14935-1 0  9995
2 69531  53.1607 222.4333 0001179  63.4061 274.3090 15.49762691  5072
STARLINK-37933          
1 69532U 26133AA  26188.08336806 -.01165683  00000+0 -27022-1 0  9994
2 69532  53.1597 222.7837 0001178  74.9646  89.3244 15.44611472  5078
STARLINK-37890          
1 69533U 26133AB  26188.08336806 -.02391890  00000+0 -57876-1 0  9997
2 69533  53.1597 222.6378 0001493  86.8425 148.4237 15.44084820  5075
STARLINK-37407          
1 69534U 26133AC  26188.08336806 -.02393055  00000+0 -54655-1 0  9995
2 69534  53.1608 222.4955 0001213 101.6591 202.6347 15.45766063  5126
STARLINK-37888          
1 69535U 26133AD  26188.08336806 -.02357233  00000+0 -58896-1 0  9995
2 69535  53.1608 222.5335 0001241  93.4648 191.3750 15.43094724  5074
STARLINK-37889          
1 69536U 26133AE  26188.08336806  .00075584  00000+0  13536-2 0  9991
2 69536  53.1598 223.4155 0001046  90.3894 128.1524 15.49315973  5069
ZHUQUE-2E R/B           
1 69537U 26128C   26188.20288045  .00044156  00000+0  39921-3 0  9999
2 69537  54.5274 209.2302 0066484  39.3790 321.2050 15.64816148  4355
2026-134A               
1 69538U 26134A   26188.21035249  .00004337  00000+0  27467-3 0  9993
2 69538  97.7000 258.3925 0015453 198.4404 161.6266 15.09410912  3337
2026-134B               
1 69539U 26134B   26188.14178082  .00004257  00000+0  26850-3 0  9995
2 69539  97.6976 258.3222 0015523 201.1528 158.9061 15.09567729  3315
2026-134C               
1 69540U 26134C   26187.80989888  .00004775  00000+0  30051-3 0  9996
2 69540  97.6981 257.9915 0014932 203.5072 156.5476 15.09597373  3266
2026-134D               
1 69541U 26134D   26188.14048684  .00004262  00000+0  26813-3 0  9997
2 69541  97.7021 258.3361 0016005 202.0112 158.0431 15.09657868  3315
2026-134E               
1 69542U 26134E   26188.14016728  .00004230  00000+0  26600-3 0  9991
2 69542  97.7040 258.3417 0015736 202.6960 157.3574 15.09679581  3312
2026-134F               
1 69543U 26134F   26188.13950051  .00004154  00000+0  26108-3 0  9995
2 69543  97.6991 258.3295 0014985 204.3135 155.7388 15.09725257  3316
2026-134G               
1 69544U 26134G   26188.13827987  .00004143  00000+0  25975-3 0  9996
2 69544  97.7038 258.3433 0015476 205.1485 154.8992 15.09810240  3315
