OBJECT_NAME,OBJECT_ID,EPOCH,MEAN_MOTION,ECCENTRICITY,INCLINATION,RA_OF_ASC_NODE,ARG_OF_PERICENTER,MEAN_ANOMALY,EPHEMERIS_TYPE,CLASSIFICATION_TYPE,NORAD_CAT_ID,ELEMENT_SET_NO,REV_AT_EPOCH,BSTAR,MEAN_MOTION_DOT,MEAN_MOTION_DDOT
STARLINK-37232,2026-133H,2026-07-07T02:00:03.000384,15.49289582,.0001258,53.1599,223.3672,97.5981,145.4819,0,U,69515,999,506,.96443E-3,.53521E-3,0
STARLINK-37323,2026-133J,2026-07-07T02:00:03.000384,15.58139290,.0001389,53.1603,222.5656,102.3451,176.1208,0,U,69516,999,506,-.36513E-1,-.2443859E-1,0
STARLINK-37357,2026-133K,2026-07-07T03:04:54.909120,15.49335302,.0000895,53.1588,223.4215,100.0723,260.0387,0,U,69517,999,516,.6277E-3,.34649E-3,0
STARLINK-37408,2026-133L,2026-07-07T02:00:03.000384,15.49246680,.0001081,53.1599,222.9006,48.7043,64.7369,0,U,69518,999,506,.1283E-2,.71403E-3,0
STARLINK-37570,2026-133M,2026-07-07T02:00:03.000384,15.49290154,.0001166,53.1598,223.3937,87.0547,141.1723,0,U,69519,999,506,.95682E-3,.53093E-3,0
STARLINK-37510,2026-133N,2026-07-07T02:00:03.000384,15.49294848,.0000531,53.1600,223.3427,133.0461,121.1333,0,U,69520,999,506,.98972E-3,.54956E-3,0
STARLINK-37586,2026-133P,2026-07-07T02:00:03.000384,15.56848215,.0000775,53.1607,222.4304,93.8278,249.6394,0,U,69521,999,506,-.36293E-1,-.2328927E-1,0
STARLINK-37379,2026-133Q,2026-07-07T02:00:03.000384,15.49323788,.0001796,53.1601,223.0329,74.7970,331.3195,0,U,69522,999,511,.92534E-3,.51382E-3,0
STARLINK-37429,2026-133R,2026-07-07T00:00:02.998944,15.49310165,.0001351,53.1597,223.8533,62.6652,29.5785,0,U,69523,999,510,.1406E-2,.78539E-3,0
STARLINK-37352,2026-133S,2026-07-07T02:00:03.000384,15.49289694,.0001169,53.1600,223.0154,87.1085,326.8458,0,U,69524,999,511,.91358E-3,.50657E-3,0
STARLINK-37490,2026-133T,2026-07-07T02:00:03.000384,15.49219966,.0000865,53.1603,222.5486,41.1883,242.0762,0,U,69525,999,511,.12431E-2,.69083E-3,0
STARLINK-37438,2026-133U,2026-07-07T02:00:03.000384,15.49288761,.0001037,53.1602,223.1726,63.6490,271.9836,0,U,69526,999,511,.99012E-3,.54967E-3,0
STARLINK-37484,2026-133V,2026-07-07T02:00:03.000384,15.52152819,.0001034,53.1606,222.4600,76.4531,250.4470,0,U,69527,999,511,-.50778E-1,-.273901E-1,0
STARLINK-37523,2026-133W,2026-07-07T02:00:03.000384,15.49300005,.0001125,53.1600,222.9819,85.5578,343.7817,0,U,69528,999,511,.93216E-3,.51722E-3,0
STARLINK-37369,2026-133X,2026-07-07T02:00:03.000384,15.49280543,.0000858,53.1598,222.9406,106.2862,342.7001,0,U,69529,999,511,.94512E-3,.52416E-3,0
STARLINK-37670,2026-133Y,2026-07-07T02:00:03.000384,15.49287610,.000082,53.1602,223.1084,81.5887,283.8613,0,U,69530,999,512,.99446E-3,.55209E-3,0
STARLINK-37897,2026-133Z,2026-07-07T02:00:03.000384,15.49762691,.0001179,53.1607,222.4333,63.4061,274.3090,0,U,69531,999,507,-.14935E-1,-.776841E-2,0
STARLINK-37933,2026-133AA,2026-07-07T02:00:03.000384,15.44611472,.0001178,53.1597,222.7837,74.9646,89.3244,0,U,69532,999,507,-.27022E-1,-.1165683E-1,0
STARLINK-37890,2026-133AB,2026-07-07T02:00:03.000384,15.44084820,.0001493,53.1597,222.6378,86.8425,148.4237,0,U,69533,999,507,-.57876E-1,-.239189E-1,0
STARLINK-37407,2026-133AC,2026-07-07T02:00:03.000384,15.45766063,.0001213,53.1608,222.4955,101.6591,202.6347,0,U,69534,999,512,-.54655E-1,-.2393055E-1,0
STARLINK-37888,2026-133AD,2026-07-07T02:00:03.000384,15.43094724,.0001241,53.1608,222.5335,93.4648,191.3750,0,U,69535,999,507,-.58896E-1,-.2357233E-1,0
STARLINK-37889,2026-133AE,2026-07-07T02:00:03.000384,15.49315973,.0001046,53.1598,223.4155,90.3894,128.1524,0,U,69536,999,506,.13536E-2,.75584E-3,0
ZHUQUE-2E R/B,2026-128C,2026-07-07T04:52:08.870880,15.64816148,.0066484,54.5274,209.2302,39.3790,321.2050,0,U,69537,999,435,.39921E-3,.44156E-3,0
2026-134A,2026-134A,2026-07-07T05:02:54.455136,15.09410912,.0015453,97.7000,258.3925,198.4404,161.6266,0,U,69538,999,333,.27467E-3,.4337E-4,0
2026-134B,2026-134B,2026-07-07T03:24:09.862848,15.09567729,.0015523,97.6976,258.3222,201.1528,158.9061,0,U,69539,999,331,.2685E-3,.4257E-4,0
2026-134C,2026-134C,2026-07-06T19:26:15.263232,15.09597373,.0014932,97.6981,257.9915,203.5072,156.5476,0,U,69540,999,326,.30051E-3,.4775E-4,0
2026-134D,2026-134D,2026-07-07T03:22:18.062976,15.09657868,.0016005,97.7021,258.3361,202.0112,158.0431,0,U,69541,999,331,.26813E-3,.4262E-4,0
2026-134E,2026-134E,2026-07-07T03:21:50.452992,15.09679581,.0015736,97.7040,258.3417,202.6960,157.3574,0,U,69542,999,331,.266E-3,.423E-4,0
2026-134F,2026-134F,2026-07-07T03:20:52.844064,15.09725257,.0014985,97.6991,258.3295,204.3135,155.7388,0,U,69543,999,331,.26108E-3,.4154E-4,0
2026-134G,2026-134G,2026-07-07T03:19:07.380768,15.09810240,.0015476,97.7038,258.3433,205.1485,154.8992,0,U,69544,999,331,.25975E-3,.4143E-4,0
